TRANSPORTER-15 J        
1 66674U 25276J   25355.45366295 -.00494676  00000+0 -28180-1 0  9998
2 66674  97.4372  67.0325 0006500 333.1103  26.9792 15.15191397  3449
TRANSPORTER-15 K        
1 66675U 25276K   25355.45130931  .00009276  00000+0  47273-3 0  9997
2 66675  97.4394  67.0396 0004997 265.0814  94.9849 15.16978011  3447
TRANSPORTER-15 L        
1 66676U 25276L   25355.78269064  .00006835  00000+0  35131-3 0  9992
2 66676  97.4394  67.3614 0004797 261.7093  98.3597 15.16778445  3496
TRANSPORTER-15 M        
1 66677U 25276M   25355.77536194  .00012192  00000+0  61198-3 0  9998
2 66677  97.4388  67.3686 0003889 269.2264  90.8524 15.17442741  3498
TRANSPORTER-15 N        
1 66678U 25276N   25355.51820815  .00007540  00000+0  38657-3 0  9992
2 66678  97.4427  67.1124 0004855 255.3791 104.6904 15.16833494  3453
TRANSPORTER-15 P        
1 66679U 25276P   25355.45315507  .00563150  00000+0  26256-1 0  9997
2 66679  97.4397  67.0293 0003798 283.1797  76.9013 15.17590497  3441
TRANSPORTER-15 Q        
1 66680U 25276Q   25355.58397109  .00007104  00000+0  36465-3 0  9998
2 66680  97.4418  67.1744 0004694 252.4051 107.6669 15.16812057  3466
TRANSPORTER-15 R        
1 66681U 25276R   25355.77721608  .00163222  00000+0  79459-2 0  9998
2 66681  97.4338  67.3531 0003279 272.5567  87.5291 15.17615848  3497
TRANSPORTER-15 S        
1 66682U 25276S   25355.77931321  .00008616  00000+0  43777-3 0  9994
2 66682  97.4459  67.3841 0004813 243.8488 116.2251 15.17108328  3490
TRANSPORTER-15 T        
1 66683U 25276T   25355.78005757  .00008474  00000+0  43197-3 0  9999
2 66683  97.4456  67.3819 0004693 246.4430 113.6311 15.16998166  3499
TRANSPORTER-15 U        
1 66684U 25276U   25355.71117398  .00009454  00000+0  47765-3 0  9992
2 66684  97.4481  67.3280 0004476 244.9496 115.1273 15.17280431  3487
TRANSPORTER-15 V        
1 66685U 25276V   25355.77592756  .00016164  00000+0  81003-3 0  9993
2 66685  97.4422  67.3784 0004384 264.3986  95.6747 15.17431271  3499
TRANSPORTER-15 W        
1 66686U 25276W   25355.77923031  .00005933  00000+0  30363-3 0  9993
2 66686  97.4458  67.3845 0004077 248.9270 111.1528 15.16987850  3499
TRANSPORTER-15 X        
1 66687U 25276X   25355.78439862  .00011988  00000+0  61473-3 0  9992
2 66687  97.4392  67.3567 0008309  58.4647 301.7396 15.16670695  3498
TRANSPORTER-15 Y        
1 66688U 25276Y   25355.77837472  .00007487  00000+0  38144-3 0  9999
2 66688  97.4437  67.3797 0003629 253.1367 106.9469 15.17062810  3498
TRANSPORTER-15 Z        
1 66689U 25276Z   25355.44535279  .00006287  00000+0  31970-3 0  9991
2 66689  97.4421  67.0567 0001372 282.9898  77.1182 15.17195818  3447
TRANSPORTER-15 AA       
1 66690U 25276AA  25355.77842251  .00006408  00000+0  32714-3 0  9992
2 66690  97.4399  67.3687 0003593 252.9568 107.1272 15.17043444  3493
TRANSPORTER-15 AB       
1 66691U 25276AB  25355.77658538  .00009213  00000+0  46573-3 0  9991
2 66691  97.4424  67.3779 0003703 254.5474 105.5350 15.17270049  3494
TRANSPORTER-15 AC       
1 66692U 25276AC  25355.77356817 -.00186003  00000+0 -96276-2 0  9996
2 66692  97.4425  67.3859 0001987 209.7052 150.4069 15.17114883  3490
TRANSPORTER-15 AD       
1 66693U 25276AD  25355.77376117  .00012719  00000+0  63597-3 0  9993
2 66693  97.4379  67.3669 0003286 280.0271  80.0591 15.17568273  3491
YAM-9                   
1 66694U 25276AE  25355.77194228  .00009882  00000+0  49549-3 0  9993
2 66694  97.4417  67.3833 0001429 268.9826  91.1244 15.17538635  3493
IRIDE FM1               
1 66695U 25276AF  25355.82781698  .00010622  00000+0  52185-3 0  9997
2 66695  97.4407  67.4565 0001258 148.4845 211.6464 15.18233992  3503
IRIDE FM2               
1 66696U 25276AG  25355.77430398  .00003932  00000+0  20021-3 0  9990
2 66696  97.4395  67.3714 0005677 340.4276  19.6738 15.17369038  3494
IRIDE FM3               
1 66697U 25276AH  25355.76300060  .00008912  00000+0  43962-3 0  9994
2 66697  97.4394  67.3869 0001123 158.4445 201.6837 15.18140700  3499
IRIDE FM4               
1 66698U 25276AJ  25355.77511779  .00003968  00000+0  20247-3 0  9994
2 66698  97.4405  67.3710 0003576 323.7008  36.3983 15.17296938  3493
IRIDE FM5               
1 66699U 25276AK  25355.77494317  .00012987  00000+0  65343-3 0  9990
2 66699  97.4424  67.3757 0003141 262.7795  97.3082 15.17345522  3490
IRIDE FM6               
1 66700U 25276AL  25355.76241183  .00009274  00000+0  45662-3 0  9990
2 66700  97.4427  67.3975 0001545 166.0786 194.0491 15.18193960  3497
IRIDE FM7               
1 66701U 25276AM  25355.51120688 -.00138346  00000+0 -71121-2 0  9993
2 66701  97.4408  67.1217 0002040 246.0122 114.0898 15.17123308  3455
IRIDE FM8               
1 66702U 25276AN  25355.77478234  .00008561  00000+0  43189-3 0  9992
2 66702  97.4404  67.3739 0002828 269.7382  90.3528 15.17366545  3499
PELICAN-6               
1 66703U 25276AP  25355.77346177  .00004335  00000+0  22070-3 0  9994
2 66703  97.4412  67.3774 0000928 251.3967 108.7166 15.17323049  3497
FLOCK 4H-1              
1 66704U 25276AQ  25355.76376399  .00008090  00000+0  40028-3 0  9998
2 66704  97.4388  67.3812 0001746 175.4201 184.7050 15.18064107  3493
FLOCK 4H-2              
1 66705U 25276AR  25355.76333646  .00008122  00000+0  40128-3 0  9994
2 66705  97.4382  67.3821 0001145 163.1828 196.9444 15.18115069  3496
FLOCK 4H-3              
1 66706U 25276AS  25355.37648982  .01105709  00000+0  47949-1 0  9990
2 66706  97.4467  67.0015 0010850 263.3993  96.6007 15.19631128  3437
FLOCK 4H-4              
1 66707U 25276AT  25355.71061784  .00005930  00000+0  30176-3 0  9998
2 66707  97.4435  67.3164 0003534 257.3919 102.6919 15.17189791  3480
FLOCK 4H-5              
1 66708U 25276AU  25355.76216632  .00007271  00000+0  35929-3 0  9999
2 66708  97.4388  67.3872 0001135 129.2339 230.8996 15.18147861  3495
FLOCK 4H-6              
1 66709U 25276AV  25355.76563263  .00008354  00000+0  41521-3 0  9993
2 66709  97.4436  67.3998 0002574 212.8488 147.2586 15.17895916  3497
FLOCK 4H-7              
1 66710U 25276AW  25355.77269668  .00004267  00000+0  21644-3 0  9991
2 66710  97.4394  67.3706 0001072 302.7023  57.4107 15.17467922  3498
FLOCK 4H-8              
1 66711U 25276AX  25355.70697637  .00006926  00000+0  34913-3 0  9993
2 66711  97.4438  67.3257 0002359 274.8555  85.2409 15.17463864  3481
FLOCK 4H-9              
1 66712U 25276AY  25355.76582955  .00008372  00000+0  41608-3 0  9992
2 66712  97.4429  67.3976 0002624 222.4547 137.6484 15.17899211  3490
FLOCK 4H-10             
1 66713U 25276AZ  25355.51218221 -.00071864  00000+0 -36544-2 0  9998
2 66713  97.4432  67.1151 0002687 252.9711 107.1228 15.17170539  3457
FLOCK 4H-11             
1 66714U 25276BA  25355.77110256  .00011731  00000+0  58374-3 0  9997
2 66714  97.4421  67.3893 0002130 282.8017  77.2979 15.17759004  3499
FLOCK 4H-12             
1 66715U 25276BB  25355.76384522  .00008549  00000+0  42282-3 0  9990
2 66715  97.4396  67.3830 0001814 191.3442 168.7751 15.18061423  3807
FLOCK 4H-13             
1 66716U 25276BC  25355.76186178  .00008452  00000+0  41677-3 0  9998
2 66716  97.4433  67.3998 0001567 147.1301 213.0030 15.18172366  3491
FLOCK 4H-14             
1 66717U 25276BD  25355.62818426  .00005097  00000+0  25162-3 0  9995
2 66717  97.4419  67.2686 0001525 134.9497 225.1861 15.18322166  2729
FLOCK 4H-15             
1 66718U 25276BE  25355.77766561  .00007466  00000+0  38009-3 0  9990
2 66718  97.4426  67.3779 0003109 275.9703  84.1176 15.17087446  3493
FLOCK 4H-16             
1 66719U 25276BF  25355.77625580 -.00351640  00000+0 -18951-1 0  9996
2 66719  97.4441  67.3848 0005346 202.2948 157.8054 15.16472247  3496
FLOCK 4H-17             
1 66720U 25276BG  25355.76379218  .00007422  00000+0  36775-3 0  9991
2 66720  97.4445  67.4042 0002590 196.2123 163.9028 15.18043918  3494
FLOCK 4H-18             
1 66721U 25276BH  25355.71119373  .00006438  00000+0  32795-3 0  9995
2 66721  97.4389  67.3003 0002487 289.4365  70.6600 15.17123789  3489
FLOCK 4H-19             
1 66722U 25276BJ  25355.49745240  .00014700  00000+0  72096-3 0  9998
2 66722  97.4397  67.1288 0001685 154.8450 205.2867 15.18212936  2744
FLOCK 4H-20             
1 66723U 25276BK  25355.69460824  .00009237  00000+0  45370-3 0  9997
2 66723  97.4427  67.3366 0002703 175.7400 184.3857 15.18279163  2737
FLOCK 4H-21             
1 66724U 25276BL  25355.62820836  .00010140  00000+0  49683-3 0  9990
2 66724  97.4399  67.2587 0002229 173.7271 186.3991 15.18339978  2728
FLOCK 4H-22             
1 66725U 25276BM  25355.77275014  .00004689  00000+0  23748-3 0  9994
2 66725  97.4381  67.3670 0001599 299.6934  60.4141 15.17470872  3499
FLOCK 4H-23             
1 66726U 25276BN  25355.77613580  .00007308  00000+0  37086-3 0  9990
2 66726  97.4449  67.3856 0003340 249.2827 110.8048 15.17207628  3492
FLOCK 4H-24             
1 66727U 25276BP  25355.77471432 -.00278725  00000+0 -14797-1 0  9996
2 66727  97.4444  67.3902 0003584  12.0689 348.0630 15.16663463  3496
FLOCK 4H-25             
1 66728U 25276BQ  25355.76109481  .00015552  00000+0  76265-3 0  9993
2 66728  97.4360  67.3917 0001730 104.9368 255.2057 15.18204782  2775
FLOCK 4H-26             
1 66729U 25276BR  25355.77757559  .00008699  00000+0  44164-3 0  9997
2 66729  97.4401  67.3692 0003584 267.9214  92.1609 15.17134678  3497
FLOCK 4H-27             
1 66730U 25276BS  25355.76312875  .00007382  00000+0  36557-3 0  9991
2 66730  97.4376  67.3820 0001109 130.4360 229.6971 15.18064900  3490
FLOCK 4H-28             
1 66731U 25276BT  25355.71129580  .00006875  00000+0  34995-3 0  9996
2 66731  97.4390  67.3015 0003240 268.3716  91.7146 15.17123484  3480
FLOCK 4H-29             
1 66732U 25276BU  25355.70916668  .00013959  00000+0  70361-3 0  9995
2 66732  97.4410  67.3027 0002180 307.5414  52.5621 15.17265916  3480
